SAUDISAT 1C (SO-50)     
1 27607U 02058C   26159.18674215  .00001069  00000+0  14314-3 0  9995
2 27607  64.5503 156.8323 0075454 264.1272  95.1229 14.83027444263123
SAUDISAT 2              
1 28371U 04025F   26158.96197249  .00000319  00000+0  82276-4 0  9992
2 28371  98.5506 158.7055 0024008 327.6512  32.3212 14.56678716164406
SAUDISAT 3              
1 31118U 07012B   26159.14638102  .00000314  00000+0  58940-4 0  9999
2 31118  98.1452 109.5413 0013294 255.2069 104.7665 14.71420586 26416
PISAT                   
1 41784U 16059B   26158.94835706  .00001040  00000+0  18468-3 0  9993
2 41784  97.8178 159.7983 0027747 233.3279 126.5376 14.68968197518388
FLYING LAPTOP           
1 42831U 17042G   26159.31988279  .00003569  00000+0  28242-3 0  9995
2 42831  97.4657 315.1968 0019118 150.6529 209.5774 15.01087719485122
SALSAT                  
1 46495U 20068K   26158.98778249  .00008175  00000+0  28698-3 0  9996
2 46495  97.8853 161.4934 0008911 345.1768  14.9208 15.29667638313959
