OBJECT_NAME,OBJECT_ID,EPOCH,MEAN_MOTION,ECCENTRICITY,INCLINATION,RA_OF_ASC_NODE,ARG_OF_PERICENTER,MEAN_ANOMALY,EPHEMERIS_TYPE,CLASSIFICATION_TYPE,NORAD_CAT_ID,ELEMENT_SET_NO,REV_AT_EPOCH,BSTAR,MEAN_MOTION_DOT,MEAN_MOTION_DDOT
SAUDISAT 1C (SO-50),2002-058C,2026-06-08T04:28:54.521760,14.83027444,.00754543,64.5503,156.8323,264.1272,95.1229,0,U,27607,999,26312,.14313582E-3,.1069E-4,0
SAUDISAT 2,2004-025F,2026-06-07T23:05:14.423136,14.56678716,.00240081,98.5506,158.7055,327.6512,32.3212,0,U,28371,999,16440,.8227562E-4,.319E-5,0
SAUDISAT 3,2007-012B,2026-06-08T03:30:47.320128,14.71420586,.00132949,98.1452,109.5413,255.2069,104.7665,0,U,31118,999,2641,.58940353E-4,.314E-5,0
PISAT,2016-059B,2026-06-07T22:45:38.049984,14.68968197,.00277474,97.8178,159.7983,233.3279,126.5376,0,U,41784,999,51838,.184682E-3,.104E-4,0
FLYING LAPTOP,2017-042G,2026-06-08T07:40:37.873056,15.01087719,.00191187,97.4657,315.1968,150.6529,209.5774,0,U,42831,999,48512,.28241932E-3,.3569E-4,0
SALSAT,2020-068K,2026-06-07T23:42:24.407136,15.29667638,.00089117,97.8853,161.4934,345.1768,14.9208,0,U,46495,999,31395,.28698063E-3,.8175E-4,0
